STARLINK-30169          
1 57499U 23113E   26068.17478772 -.00001723  00000+0 -53049-4 0  9998
2 57499  43.0048   4.7938 0002385 269.5550  90.5028 15.27589512143609
FLOCK 4G-8              
1 62613U 25009E   26068.72381419  .00013559  00000+0  50438-3 0  9996
2 62613  97.4045 151.2834 0003050 315.2538  44.8455 15.27623414 63721
