[{"OBJECT_NAME":"STARLINK-30169","OBJECT_ID":"2023-113E","EPOCH":"2026-03-09T04:11:41.659008","MEAN_MOTION":15.27589512,"ECCENTRICITY":0.00023859,"INCLINATION":43.0048,"RA_OF_ASC_NODE":4.7938,"ARG_OF_PERICENTER":269.555,"MEAN_ANOMALY":90.5028,"EPHEMERIS_TYPE":0,"CLASSIFICATION_TYPE":"U","NORAD_CAT_ID":57499,"ELEMENT_SET_NO":999,"REV_AT_EPOCH":14360,"BSTAR":-5.3048689e-5,"MEAN_MOTION_DOT":-1.723e-5,"MEAN_MOTION_DDOT":0},{"OBJECT_NAME":"FLOCK 4G-8","OBJECT_ID":"2025-009E","EPOCH":"2026-03-09T17:22:17.546016","MEAN_MOTION":15.27623414,"ECCENTRICITY":0.00030503,"INCLINATION":97.4045,"RA_OF_ASC_NODE":151.2834,"ARG_OF_PERICENTER":315.2538,"MEAN_ANOMALY":44.8455,"EPHEMERIS_TYPE":0,"CLASSIFICATION_TYPE":"U","NORAD_CAT_ID":62613,"ELEMENT_SET_NO":999,"REV_AT_EPOCH":6372,"BSTAR":0.0005043806,"MEAN_MOTION_DOT":0.00013559,"MEAN_MOTION_DDOT":0}]
